STARLINK-6343
1 57362U 23099AL  26090.83335647  .00049852  00000+0  28371-2 0  9992
2 57362  42.9994 115.4165 0000923 264.9906 322.0162 15.12112240  5814
